#aV2011  7  7  0  0   .00000000      96 DD+AD WGS84 FIT  NGA
## 1643 345600.00000000   900.00000000 55749  .0000000000000
+   32     1  2  3  4  5  6  7  8  9 10 11 12 13 14 15 16 17
+         18 19 20 21 22 23 24 25 26 27 28 29 30 31 32  0  0
+          0  0  0  0  0  0  0  0  0  0  0  0  0  0  0  0  0
+          0  0  0  0  0  0  0  0  0  0  0  0  0  0  0  0  0
+          0  0  0  0  0  0  0  0  0  0  0  0  0  0  0  0  0
++         0  0  0  0  0  0  0  0  0  0  0  0  0  0  0  0  0
++         0  0  0  0  0  0  0  0  0  0  0  0  0  0  0  0  0
++         0  0  0  0  0  0  0  0  0  0  0  0  0  0  0  0  0
++         0  0  0  0  0  0  0  0  0  0  0  0  0  0  0  0  0
++         0  0  0  0  0  0  0  0  0  0  0  0  0  0  0  0  0
%c cc cc ccc ccc cccc cccc cccc cccc ccccc ccccc ccccc ccccc
%c cc cc ccc ccc cccc cccc cccc cccc ccccc ccccc ccccc ccccc
%f  0.0000000  0.000000000  0.00000000000  0.000000000000000
%f  0.0000000  0.000000000  0.00000000000  0.000000000000000
%i    0    0    0    0      0      0      0      0         0
%i    0    0    0    0      0      0      0      0         0
/*      NGA, ST. LOUIS,MO.                                  
/*   EPHEMERIS COMPUTED FROM  3 DAYS OF DATA                
/* CCCCCCCCCCCCCCCCCCCCCCCCCCCCCCCCCCCCCCCCCCCCCCCCCCCCCCCCC
/* CCCCCCCCCCCCCCCCCCCCCCCCCCCCCCCCCCCCCCCCCCCCCCCCCCCCCCCCC
*  2011  7  7  4 15   .00000000                                                 
P  1 -13864.216048 -19683.079141  10893.673507     95.144420                    
V  1  -1555.819538 -14534.717715 -27294.835479       .018044                    
P  2     13.463973 -16279.743198  21108.924284    345.375116                    
V  2  25467.230096   7966.664775   5655.588380       .018416                    
P  3  -6130.920819  22059.611747 -13619.051468    738.516710                    
V  3 -13488.440059  10475.032322  24105.131968       .048737                    
P  4  15992.618103  -9190.765856  19016.044006    165.024187                    
V  4  22700.288294   9503.712582 -13996.702788       .108623                    
P  5   -881.314914 -25877.048037   5649.869503   -185.620610                    
V  5   4335.247766   6518.871230  30569.802028      -.055597                    
P  6 -11589.429116  21444.370677 -10100.903844     45.064045                    
V  6 -11844.122089   6684.936396  27609.399355      -.842192                    
P  7  25565.076600   5122.934832  -5654.335325     16.953067                    
V  7   5988.275884   4407.865449  30838.727375       .014113                    
P  8  22546.343295   -135.626379 -14453.236340      8.422534                    
V  8  16152.413114   8257.021334  24531.602855       .000473                    
P  9 -18152.342004 -14973.501115 -12862.054878     91.102943                    
V  9  15126.146590   3316.633583 -26368.287894       .024667                    
P 10  10534.807773 -15858.438708  18146.107442     -5.928316                    
V 10   5851.183584  23007.746489  16884.135116      -.012000                    
P 11  17364.017980  13785.159084 -15186.767814   -165.874442                    
V 11 -19035.583328   1644.410886 -20371.580778      -.032953                    
P 12 -11791.898985 -20660.487143  12010.214880      7.444361                    
V 12   -755.117881 -15229.941515 -26800.046545       .025399                    
P 13  19853.702698   -200.445314  17532.842521    262.273988                    
V 13 -17476.279256  14151.776714  19720.103761      -.017203                    
P 14 -21785.406394  14873.527709  -2151.075502    160.198125                    
V 14    961.522552  -3572.024442 -32174.565065       .021086                    
P 15  -6204.799050 -14767.539864 -21157.032680   -117.322168                    
V 15  20540.446103 -17454.421748   6320.825366       .020972                    
P 16    153.523094  25809.097800   5565.259716   -183.805884                    
V 16  -3528.666980  -6635.322075  31253.719147      -.024589                    
P 17  21237.639834 -15632.089736  -1751.999686    182.755873                    
V 17      8.475909   3837.705284 -31816.678450      -.005772                    
P 18 -15957.198094  -1269.042945 -20903.581592    145.928063                    
V 18  -4289.430278 -27038.841765   4466.367487       .019119                    
P 19   2027.012282  16449.477681 -20685.146141   -159.316350                    
V 19 -21942.054646  14603.537520   9820.883964      -.041285                    
P 20  14229.661579  18023.976197  13254.324022     50.482964                    
V 20   1013.401248  17323.383678 -24320.907261       .003323                    
P 21 -25503.537356  -3343.601039  -7352.353167   -156.157898                    
V 21  -8157.669549  -6225.222288  28818.157665      -.025851                    
P 22 -12345.189633  13151.369452 -19284.654110    146.573582                    
V 22  -5822.318793 -24381.433020 -12894.288304      -.004942                    
P 23  12817.917586   8785.286100  21583.718551    293.761154                    
V 23 -20749.560902  17798.481669   4729.374861      -.028575                    
P 24  20429.367947  14960.307545  -8449.058178    404.572371                    
V 24 -10973.539889  -1540.093658 -28784.539155       .031620                    
P 25 -15620.868593  -8927.707465  19521.624287      7.770218                    
V 25  -3764.544368 -24564.928028 -14200.618093       .019248                    
P 26   6317.860489 -19136.289601 -17682.117343    -83.055727                    
V 26  17988.784855 -11636.421391  20074.170455      -.118962                    
P 27 -14287.031522 -15356.104804 -15849.046233    282.201200                    
V 27  20697.619391   4657.445713 -21935.316795       .036861                    
P 28  12970.177335  -8908.273848 -20834.470696     50.063451                    
V 28   4819.729272  27269.645007  -8696.635726       .027498                    
P 29 -19208.462271  -1070.809613  18368.312526    221.170681                    
V 29  17195.993006 -15621.141137  17187.164975       .030644                    
P 30  -4889.390092  21802.814292  13926.238735     20.417579                    
V 30  -6415.042109 -17398.750000  24284.631472       .044225                    
P 31 -12958.127370  10310.827834  21012.791516    107.023141                    
V 31 -24367.417292  -9425.137984 -10295.029458       .059387                    
P 32   8131.258937  24321.569751   7980.100212   -286.956676                    
V 32  -1435.441035   9850.807955 -29171.981679      -.071041                    
EOF
